{
    "links": {
        "self": "http://www.neowsapp.com/rest/v1/neo/3451793?api_key=iIulBulltgU6a56xZRHN4H3l9WmuAYTsLGpBGhQ2"
    },
    "id": "3451793",
    "neo_reference_id": "3451793",
    "name": "(2009 FJ)",
    "designation": "2009 FJ",
    "nasa_jpl_url": "http://ssd.jpl.nasa.gov/sbdb.cgi?sstr=3451793",
    "absolute_magnitude_h": 24.9,
    "estimated_diameter": {
        "kilometers": {
            "estimated_diameter_min": 0.0278326768,
            "estimated_diameter_max": 0.0622357573
        },
        "meters": {
            "estimated_diameter_min": 27.8326768072,
            "estimated_diameter_max": 62.2357573367
        },
        "miles": {
            "estimated_diameter_min": 0.0172944182,
            "estimated_diameter_max": 0.0386714948
        },
        "feet": {
            "estimated_diameter_min": 91.3145593761,
            "estimated_diameter_max": 204.1855621004
        }
    },
    "is_potentially_hazardous_asteroid": false,
    "close_approach_data": [
        {
            "close_approach_date": "2009-03-16",
            "close_approach_date_full": "2009-Mar-16 05:20",
            "epoch_date_close_approach": 1237180800000,
            "relative_velocity": {
                "kilometers_per_second": "9.4041070181",
                "kilometers_per_hour": "33854.7852651195",
                "miles_per_hour": "21036.0469887627"
            },
            "miss_distance": {
                "astronomical": "0.0126445902",
                "lunar": "4.9187455878",
                "kilometers": "1891603.760942874",
                "miles": "1175388.0735807012"
            },
            "orbiting_body": "Earth"
        },
        {
            "close_approach_date": "2045-04-20",
            "close_approach_date_full": "2045-Apr-20 02:42",
            "epoch_date_close_approach": 2376268920000,
            "relative_velocity": {
                "kilometers_per_second": "21.4263520523",
                "kilometers_per_hour": "77134.8673884503",
                "miles_per_hour": "47928.6069058957"
            },
            "miss_distance": {
                "astronomical": "0.4075838064",
                "lunar": "158.5501006896",
                "kilometers": "60973669.283932368",
                "miles": "37887281.2364599584"
            },
            "orbiting_body": "Earth"
        },
        {
            "close_approach_date": "2054-12-15",
            "close_approach_date_full": "2054-Dec-15 12:33",
            "epoch_date_close_approach": 2680950780000,
            "relative_velocity": {
                "kilometers_per_second": "21.5165244105",
                "kilometers_per_hour": "77459.4878777802",
                "miles_per_hour": "48130.3134538351"
            },
            "miss_distance": {
                "astronomical": "0.4119396853",
                "lunar": "160.2445375817",
                "kilometers": "61625299.489350311",
                "miles": "38292185.4704478518"
            },
            "orbiting_body": "Earth"
        }
    ],
    "orbital_data": {
        "orbit_id": "20",
        "orbit_determination_date": "2017-04-06 09:01:01",
        "first_observation_date": "2009-03-17",
        "last_observation_date": "2009-04-17",
        "data_arc_in_days": 31,
        "observations_used": 131,
        "orbit_uncertainty": "7",
        "minimum_orbit_intersection": ".000738136",
        "jupiter_tisserand_invariant": "3.430",
        "epoch_osculation": "2459000.5",
        "eccentricity": ".5671342143885328",
        "semi_major_axis": "2.208007895854406",
        "inclination": ".8869984317610214",
        "ascending_node_longitude": "353.5462763955632",
        "orbital_period": "1198.3932661157",
        "perihelion_distance": ".9557710724753399",
        "perihelion_argument": "150.7015018644352",
        "aphelion_distance": "3.460244719233472",
        "perihelion_time": "2458478.822119423460",
        "mean_anomaly": "156.7131945060702",
        "mean_motion": ".3004022220242045",
        "equinox": "J2000",
        "orbit_class": {
            "orbit_class_type": "APO",
            "orbit_class_description": "Near-Earth asteroid orbits which cross the Earth’s orbit similar to that of 1862 Apollo",
            "orbit_class_range": "a (semi-major axis) > 1.0 AU; q (perihelion) < 1.017 AU"
        }
    },
    "is_sentry_object": false
}